{
    "links": {
        "self": "http://www.neowsapp.com/rest/v1/neo/3303216?api_key=iIulBulltgU6a56xZRHN4H3l9WmuAYTsLGpBGhQ2"
    },
    "id": "3303216",
    "neo_reference_id": "3303216",
    "name": "(2005 TM173)",
    "designation": "2005 TM173",
    "nasa_jpl_url": "http://ssd.jpl.nasa.gov/sbdb.cgi?sstr=3303216",
    "absolute_magnitude_h": 24.051,
    "estimated_diameter": {
        "kilometers": {
            "estimated_diameter_min": 0.0411485917,
            "estimated_diameter_max": 0.0920110483
        },
        "meters": {
            "estimated_diameter_min": 41.1485917399,
            "estimated_diameter_max": 92.0110483089
        },
        "miles": {
            "estimated_diameter_min": 0.0255685416,
            "estimated_diameter_max": 0.0571729971
        },
        "feet": {
            "estimated_diameter_min": 135.001945724,
            "estimated_diameter_max": 301.8735277336
        }
    },
    "is_potentially_hazardous_asteroid": false,
    "close_approach_data": [
        {
            "close_approach_date": "2005-10-16",
            "close_approach_date_full": "2005-Oct-16 19:36",
            "epoch_date_close_approach": 1129491360000,
            "relative_velocity": {
                "kilometers_per_second": "10.8763334278",
                "kilometers_per_hour": "39154.8003401016",
                "miles_per_hour": "24329.2702446592"
            },
            "miss_distance": {
                "astronomical": "0.0161343826",
                "lunar": "6.2762748314",
                "kilometers": "2413669.270725062",
                "miles": "1499784.5388953756"
            },
            "orbiting_body": "Earth"
        }
    ],
    "orbital_data": {
        "orbit_id": "7",
        "orbit_determination_date": "2017-04-06 09:10:12",
        "first_observation_date": "2005-10-09",
        "last_observation_date": "2005-10-11",
        "data_arc_in_days": 2,
        "observations_used": 6,
        "orbit_uncertainty": "9",
        "minimum_orbit_intersection": ".00810998",
        "jupiter_tisserand_invariant": "2.908",
        "epoch_osculation": "2453653.5",
        "eccentricity": ".6749567640528911",
        "semi_major_axis": "2.872579164859974",
        "inclination": "1.282528436838126",
        "ascending_node_longitude": "241.369569312055",
        "orbital_period": "1778.30576380863",
        "perihelion_distance": ".9337124272603295",
        "perihelion_argument": "172.5804391933625",
        "aphelion_distance": "4.811445902459618",
        "perihelion_time": "2453682.976469530805",
        "mean_anomaly": "354.0327871353446",
        "mean_motion": ".2024398769472475",
        "equinox": "J2000",
        "orbit_class": {
            "orbit_class_type": "APO",
            "orbit_class_description": "Near-Earth asteroid orbits which cross the Earth’s orbit similar to that of 1862 Apollo",
            "orbit_class_range": "a (semi-major axis) > 1.0 AU; q (perihelion) < 1.017 AU"
        }
    },
    "is_sentry_object": false
}